179P/Jedicke,e,19.8983,115.5219,296.7701,5.935799,0.0681531,0.30610830,334.4920,05/20.0/2021,2000,g  2.5,8.0
# From MPC100284
180P/NEAT,e,16.8663,84.5669,94.8107,3.862924,0.1298165,0.35305820,258.2617,05/20.0/2021,2000,g 11.0,4.0
# From MPC 89012
181P/Shoemaker-Levy,e,17.4863,35.4111,336.2418,3.872651,0.1293277,0.70054686,329.7671,05/20.0/2021,2000,g 11.5,4.0
# From MPEC 2014-J10
182P/LONEOS,e,16.2231,72.5172,54.1183,2.952818,0.1942447,0.66304504,290.6040,05/20.0/2021,2000,g 18.0,4.0
# From MPC110085
183P/Korlevic-Juric,e,18.7686,4.6239,166.1011,4.538831,0.1019267,0.13675688,128.7625,05/20.0/2021,2000,g 12.5,2.0
# From MPEC 2020-W26
184P/Lovas,e,4.5732,173.2527,186.4513,3.793450,0.1333990,0.55096852,27.4522,05/20.0/2021,2000,g 13.5,4.0
# From MPC109593
185P/Petriew,e,14.0059,214.0981,181.8746,3.098945,0.1806688,0.69922796,218.3265,05/20.0/2021,2000,g 15.0,4.0
# From MPEC 2020-W26
186P/Garradd,e,28.8498,326.6354,278.7493,4.952945,0.0894147,0.12178798,70.8630,05/20.0/2021,2000,g  7.5,4.0
# From MPEC 2020-SI8
187P/LINEAR,e,13.6343,109.9196,131.8792,4.569793,0.1008926,0.15210144,111.0298,05/20.0/2021,2000,g  9.0,4.0
# From MPC106349
188P/LINEAR-Mueller,e,10.5242,358.9612,26.5641,4.374320,0.1077304,0.41581600,167.2269,05/20.0/2021,2000,g 11.5,4.0
# From MPC106349
189P/NEAT,e,20.0703,281.7326,16.2857,2.946677,0.1948522,0.58875662,269.2399,05/20.0/2021,2000,g 19.0,4.0
# From MPEC 2020-K19
190P/Mueller,e,2.1743,335.5788,50.2775,4.234186,0.1131225,0.52136810,211.2883,05/20.0/2021,2000,g 13.0,4.0
# From MPEC 2021-BE3
191P/McNaught,e,8.8428,98.2321,284.0099,3.634112,0.1422678,0.38577290,8.6618,05/20.0/2021,2000,g 13.0,4.0
# From MPC 75724
192P/Shoemaker-Levy,e,24.5560,51.6230,312.9591,6.476479,0.0597992,0.77319604,294.1910,05/20.0/2021,2000,g 15.0,4.0
# From MPC 92277
193P/LINEAR-NEAT,e,10.6881,335.1755,8.1391,3.579716,0.1455228,0.39438454,345.8309,05/20.0/2021,2000,g 14.0,4.0
# From MPC 98566
194P/LINEAR,e,11.3933,350.8266,131.3083,3.981980,0.1240382,0.58239789,236.8813,05/20.0/2021,2000,g 16.0,4.0
# From MPC 75724
195P/Hill,e,36.3353,243.1186,249.3288,6.502661,0.0594384,0.31332886,269.0247,05/20.0/2021,2000,g  8.5,4.0
# From MPC 92985
196P/Tichy,e,19.2934,24.1702,12.2285,3.801285,0.1329868,0.42853655,289.7954,05/20.0/2021,2000,g 13.5,4.0
# From MPC 94676
197P/LINEAR,e,25.5360,66.3849,188.7477,2.867696,0.2029572,0.62961770,244.9999,05/20.0/2021,2000,g 16.5,2.0
# From NK 1596
198P/ODAS,e,1.3387,358.2531,69.1991,3.598922,0.1443595,0.44335879,128.2228,05/20.0/2021,2000,g  9.0,4.0
# From MPC 75725
199P/Shoemaker,e,24.9324,92.3829,191.6605,5.893836,0.0688822,0.50602742,304.2151,05/20.0/2021,2000,g 10.0,4.0
# From MPEC 2021-F20
200P/Larsen,e,12.1007,234.7923,134.0854,4.940884,0.0897423,0.33254469,59.3078,05/20.0/2021,2000,g  9.0,4.0
# From MPC 93588
201P/LONEOS,e,5.7390,19.7492,41.5432,3.353464,0.1604957,0.63698037,358.9289,05/20.0/2021,2000,g 14.0,4.0
# From MPC103849
202P/Scotti,e,2.0728,178.4103,277.3483,4.049441,0.1209516,0.26866487,227.0753,05/20.0/2021,2000,g 13.5,4.0
# From MPEC 2021-F20
203P/Korlevic,e,2.9730,290.3445,154.8180,4.671158,0.0976264,0.31514313,43.0761,05/20.0/2021,2000,g 12.7,4.0
# From MPC 98566
204P/LINEAR-NEAT,e,6.6080,108.6643,356.0361,3.597718,0.1444320,0.48802339,281.2733,05/20.0/2021,2000,g 14.0,4.0
# From MPC 98566
205P/Giacobini,e,15.3045,179.6050,154.2098,3.542213,0.1478400,0.56802533,324.7493,05/20.0/2021,2000,g 13.0,4.0
# From MPC 75725
206P/Barnard-Boattini,e,33.6335,202.3465,189.4722,3.487477,0.1513342,0.55132306,11.5773,05/20.0/2021,2000,g 19.0,4.0
# From MPC 75725
207P/NEAT,e,10.1777,198.5125,272.8776,3.869176,0.1295020,0.75954780,232.1798,05/20.0/2021,2000,g 16.0,4.0
# From MPEC 2020-W26
208P/McMillan,e,4.4106,36.3476,310.4459,4.045596,0.1211240,0.37379467,215.7012,05/20.0/2021,2000,g 12.5,4.0
# From MPC 90771
209P/LINEAR,e,21.2565,62.7722,152.4686,2.959997,0.1935384,0.67308305,136.9121,05/20.0/2021,2000,g 17.0,2.0
# From MPC105242
210P/Christensen,e,10.2625,93.8320,345.8989,3.164482,0.1750855,0.83319685,71.2772,05/20.0/2021,2000,g 13.5,4.0
# From MPC 96868
211P/Hill,e,18.9214,117.1360,4.2351,3.546385,0.1475793,0.34333759,285.8288,05/20.0/2021,2000,g 12.5,4.0
# From MPEC 2021-F20
212P/NEAT,e,22.2858,98.3674,14.0856,3.886317,0.1286461,0.58856653,222.1586,05/20.0/2021,2000,g 17.0,2.0
# From MPC114608
213P/Van Ness,e,10.3826,311.2997,5.6404,3.347819,0.1609019,0.40823439,214.3725,05/20.0/2021,2000,g 10.5,4.0
# From MPC 92986
214P/LINEAR,e,15.1837,348.2521,190.2421,3.617625,0.1432414,0.48579944,289.1903,05/20.0/2021,2000,g 13.0,4.0
# From MPC100284
216P/LINEAR,e,9.0584,359.8091,151.3489,3.868477,0.1295370,0.44645950,235.2749,05/20.0/2021,2000,g 13.0,4.0
# From MPC108598
217P/LINEAR,e,12.8644,125.4780,246.8443,3.950743,0.1255122,0.68872881,176.0328,05/20.0/2021,2000,g 12.0,4.0
# From MPEC 2020-K19
218P/LINEAR,e,2.7264,175.9651,59.7740,3.094084,0.1810948,0.62202765,41.3292,05/20.0/2021,2000,g 16.0,4.0
# From MPC100284
219P/LINEAR,e,11.5317,230.9721,107.4235,3.649760,0.1413538,0.35392606,218.7371,05/20.0/2021,2000,g 11.0,4.0
# From MPEC 2021-BE3
220P/McNaught,e,8.1288,150.1026,180.5295,3.115496,0.1792310,0.50172201,28.7447,05/20.0/2021,2000,g 15.0,4.0
# From MPEC 2021-J28
221P/LINEAR,e,11.4269,229.7045,40.0985,3.456243,0.1533902,0.49272785,327.4753,05/20.0/2021,2000,g 14.5,4.0
# From MPC 92277
222P/LINEAR,e,5.0970,6.7812,346.2441,2.899369,0.1996406,0.71461771,142.6868,05/20.0/2021,2000,g 20.0,4.0
# From MPEC 2021-F20
223P/Skiff,e,27.0236,346.7705,37.8164,4.159128,0.1161986,0.41596290,98.0130,05/20.0/2021,2000,g 14.5,4.0
# From MPC 75727
224P/LINEAR-NEAT,e,13.2991,40.1912,16.6973,3.443852,0.1542188,0.40719034,283.1968,05/20.0/2021,2000,g 15.5,4.0
# From MPC 75727
225P/LINEAR,e,21.3600,14.1923,3.8682,3.650169,0.1413301,0.63804080,245.4853,05/20.0/2021,2000,g 18.0,4.0
# From MPC106349
226P/Pigott-LINEAR-Kowalski,e,44.0217,54.0021,341.0397,3.767447,0.1347824,0.52848067,231.7399,05/20.0/2021,2000,g 12.5,4.0
# From MPC102956
227P/Catalina-LINEAR,e,6.5204,48.2303,91.2265,3.555707,0.1469993,0.51200522,208.8428,05/20.0/2021,2000,g 16.5,2.0
# From MPEC 2020-L06
228P/LINEAR,e,7.9116,30.9800,115.1827,4.171140,0.1156970,0.17639926,50.4558,05/20.0/2021,2000,g 14.5,2.0
# From MPC106349
229P/Gibbs,e,26.0912,157.9080,223.9640,3.929845,0.1265147,0.37706083,184.6558,05/20.0/2021,2000,g 13.0,4.0
# From MPC110497
230P/LINEAR,e,15.4791,107.0123,313.3922,3.454758,0.1534892,0.54607348,313.4603,05/20.0/2021,2000,g 13.0,4.0
# From MPEC 2020-K19
231P/LINEAR-NEAT,e,12.3366,133.0122,43.3662,4.026871,0.1219698,0.24747021,85.7832,05/20.0/2021,2000,g 14.5,2.0
# From MPC112394
232P/Hill,e,14.6341,56.0155,53.4052,4.479810,0.1039476,0.33416942,80.5759,05/20.0/2021,2000,g 11.5,4.0
# From MPEC 2021-J28
233P/La Sagra,e,11.2837,74.9224,27.0433,3.030572,0.1868174,0.41182137,43.0359,05/20.0/2021,2000,g 15.0,4.0
# From MPC110497
234P/LINEAR,e,11.5308,179.5635,357.2609,3.800704,0.1330172,0.25474940,193.1332,05/20.0/2021,2000,g 12.0,4.0
# From MPC110497
235P/LINEAR,e,8.9333,203.4239,333.3706,3.966907,0.1247458,0.32302283,144.6598,05/20.0/2021,2000,g 12.0,4.0
# From MPC107688
236P/LINEAR,e,16.3367,245.6245,119.2273,3.730251,0.1368035,0.50889797,174.5518,05/20.0/2021,2000,g 14.0,4.0
# From MPC109593
237P/LINEAR,e,14.0164,245.3954,25.2145,3.512449,0.1497232,0.43451911,251.5345,05/20.0/2021,2000,g 14.5,2.0
# From MPC107688
238P/Read,e,1.2642,51.6359,324.5277,3.165802,0.1749760,0.25228127,293.0795,05/20.0/2021,2000,g 14.5,4.0
# From MPEC 2021-F20
239P/LINEAR,e,11.2972,255.9135,220.4476,4.470638,0.1042677,0.63012821,89.8168,05/20.0/2021,2000,g 17.5,2.0
# From MPEC 2021-F20
240P/NEAT,e,23.5104,74.9144,351.9640,3.866806,0.1296210,0.44892729,142.6452,05/20.0/2021,2000,g 12.1,4.0
# From MPEC 2020-W26
241P/LINEAR,e,21.1066,305.4833,111.4227,4.915429,0.0904403,0.60990764,353.9598,05/20.0/2021,2000,g 13.5,4.0
# From MPC 81861
242P/Spahr,e,32.4910,180.4202,246.0353,5.482696,0.0767738,0.27809839,258.4109,05/20.0/2021,2000,g  8.0,4.0
# From MPC111774
243P/NEAT,e,7.6405,87.6423,283.5306,3.831104,0.1314372,0.36010811,131.1137,05/20.0/2021,2000,g 12.5,4.0
# From MPEC 2020-W26
244P/Scotti,e,2.2594,353.9906,92.9697,4.894706,0.0910153,0.19877716,310.3616,05/20.0/2021,2000,g  9.0,4.0
# From MPEC 2020-K19
245P/WISE,e,21.1976,316.6470,316.8684,4.044295,0.1211825,0.45721966,144.9775,05/20.0/2021,2000,g 14.0,4.0
# From MPEC 2021-F20
246P/NEAT,e,15.9856,78.7467,176.3147,4.017206,0.1224103,0.28707870,10.5411,05/20.0/2021,2000,g 10.4,4.0
# From MPEC 2021-F20
247P/LINEAR,e,13.6531,54.0088,47.4748,3.969481,0.1246245,0.62422573,112.2208,05/20.0/2021,2000,g 16.5,2.0
# From MPC 75730
248P/Gibbs,e,6.3485,207.7685,209.8693,5.991592,0.0672033,0.63824299,253.7944,05/20.0/2021,2000,g 14.0,4.0
# From MPEC 2021-BE3
249P/LINEAR,e,8.3946,239.1666,65.6279,2.762556,0.2146533,0.82010951,69.6556,05/20.0/2021,2000,g 15.5,4.0
# From MPC110497
250P/Larson,e,13.1797,73.5294,46.1428,3.761295,0.1351133,0.40107884,162.9806,05/20.0/2021,2000,g 14.5,4.0
# From MPC104795
251P/LINEAR,e,23.3947,219.3826,31.2844,3.510742,0.1498324,0.50511154,210.3318,05/20.0/2021,2000,g 16.5,2.0
# From MPC102956
252P/LINEAR,e,10.4092,190.9463,343.3003,3.050330,0.1850052,0.67198768,350.3909,05/20.0/2021,2000,g 17.5,4.0
# From MPEC 2020-FB5
253P/PANSTARRS,e,4.9433,146.8828,230.6368,3.466906,0.1526831,0.41384778,169.1265,05/20.0/2021,2000,g 14.5,4.0
# From MPEC 2021-F20
254P/McNaught,e,32.5727,129.1749,219.5082,4.611890,0.0995143,0.31976694,23.1083,05/20.0/2021,2000,g 11.0,4.0
# From NK 2214
255P/Levy,e,13.4744,275.9487,185.8051,2.943617,0.1951561,0.71308333,267.3049,05/20.0/2021,2000,g  9.0,4.0
# From MPC 84027
256P/LINEAR,e,27.6278,81.3511,124.2631,4.637480,0.0986918,0.41809277,294.7215,05/20.0/2021,2000,g 14.0,2.0
# From MPEC 2021-F20
257P/Catalina,e,20.2233,207.7343,117.6517,3.761851,0.1350833,0.43045587,33.9431,05/20.0/2021,2000,g 14.1,4.0
# From MPEC 2021-J28
258P/PANSTARRS,e,6.7460,126.2484,26.0301,4.399258,0.1068157,0.20867790,35.7755,05/20.0/2021,2000,g 13.0,4.0
# From MPC106349
